{"signature":{"source":"NASA/JPL Small-Body Database (SBDB) API","version":"1.3"},"orbit":{"rms":".48717","two_body":null,"moid":".529397","producer":"Davide Farnocchia","comment":null,"moid_jup":".29626","first_obs":"2008-10-25","condition_code":"0","elements":[{"sigma":"4.623E-8","label":"e","units":null,"value":".5097028326964878","title":"eccentricity","name":"e"},{"sigma":"8.9632E-8","label":"a","units":"au","value":"3.146133758958915","title":"semi-major axis","name":"a"},{"units":"au","name":"q","title":"perihelion distance","value":"1.542540469975507","sigma":"1.722E-7","label":"q"},{"title":"inclination; angle with respect to x-y ecliptic plane","name":"i","value":"10.4734281543904","units":"deg","label":"i","sigma":"4.1756E-6"},{"label":"node","sigma":"3.6987E-5","name":"om","title":"longitude of the ascending node","value":"68.75357468050096","units":"deg"},{"label":"peri","sigma":"3.8173E-5","value":"179.1972753698572","title":"argument of perihelion","name":"w","units":"deg"},{"units":"deg","name":"ma","title":"mean anomaly","value":"336.5854438553629","sigma":"5.8245E-6","label":"M"},{"name":"tp","title":"time of perihelion passage","value":"2457603.070724568248","units":"TDB","label":"tp","sigma":"3.3292E-5"},{"value":"2038.281680411032","title":"sidereal orbital period","name":"per","units":"d","label":"period","sigma":"8.7105E-5"},{"sigma":"7.5477E-9","label":"n","units":"deg/d","title":"mean motion","name":"n","value":".1766193571083874"},{"value":"4.749727047942323","name":"ad","title":"aphelion distance","units":"au","label":"Q","sigma":"1.3532E-7"}],"data_arc":"6267","not_valid_before":null,"not_valid_after":null,"orbit_id":"K284/2","equinox":"J2000","pe_used":"DE441","last_obs":"2025-12-22","n_obs_used":3283,"model_pars":[{"kind":"EST","n":1,"desc":"non-gravitational radial acceleration parameter","sigma":"2.17E-11","value":"1.80041343176761E-11","title":"non-grav. radial accel.","name":"A1","units":"au/d^2"},{"sigma":"1.173E-12","kind":"EST","desc":"non-gravitational transverse acceleration parameter","n":2,"units":"au/d^2","value":"1.179466662405115E-11","title":"non-grav. transverse accel.","name":"A2"}],"t_jup":"2.970","source":"JPL","n_del_obs_used":null,"n_dop_obs_used":null,"sb_used":"SB441-N16","soln_date":"2025-12-29 09:30:51","epoch":"2457470.5","cov_epoch":"2457470.5"},"object":{"neo":false,"des":"9P","spkid":"1000093","orbit_class":{"name":"Jupiter-family Comet","code":"JFc"},"prefix":"P","orbit_id":"K284/2","kind":"cn","pha":false,"fullname":"9P/Tempel 1"}}
